{
  "norad_id": 54659,
  "name": "ONEWEB-0593",
  "history": [
    {
      "epoch": "2026-03-28T17:14:47.495328",
      "apogee_km": 1179.026480879881,
      "perigee_km": 1176.486642818002,
      "latitude_deg": -77.56282352970534,
      "longitude_deg": 74.8861059199553,
      "semi_major_axis_km": 7555.893561848941,
      "eccentricity": 0.00016807,
      "inclination_deg": 87.9175,
      "raan_deg": 260.013,
      "arg_perigee_deg": 101.7189,
      "mean_anomaly_deg": 258.4133,
      "mean_motion_rev_day": 13.21825162
    },
    {
      "epoch": "2026-03-29T00:30:48.255840",
      "apogee_km": 1179.0256348435896,
      "perigee_km": 1176.4944093411887,
      "latitude_deg": -44.691095062950104,
      "longitude_deg": 103.95361760002561,
      "semi_major_axis_km": 7555.897022092388,
      "eccentricity": 0.0001675,
      "inclination_deg": 87.9174,
      "raan_deg": 259.9525,
      "arg_perigee_deg": 101.8515,
      "mean_anomaly_deg": 258.2807,
      "mean_motion_rev_day": 13.21824254
    }
  ]
}